[{"OBJECT_NAME":"FORMOSAT 7-3","OBJECT_ID":"2019-036E","EPOCH":"2026-03-09T19:49:52.754592","MEAN_MOTION":15.08933962,"ECCENTRICITY":0.00010606,"INCLINATION":23.9981,"RA_OF_ASC_NODE":141.9797,"ARG_OF_PERICENTER":150.4425,"MEAN_ANOMALY":209.6139,"EPHEMERIS_TYPE":0,"CLASSIFICATION_TYPE":"U","NORAD_CAT_ID":44343,"ELEMENT_SET_NO":999,"REV_AT_EPOCH":36821,"BSTAR":0.00037650049,"MEAN_MOTION_DOT":6.445e-5,"MEAN_MOTION_DDOT":0},{"OBJECT_NAME":"COSMOS 397 DEB","OBJECT_ID":"1971-015CL","EPOCH":"2026-03-09T09:22:46.507584","MEAN_MOTION":13.84977696,"ECCENTRICITY":0.05617651,"INCLINATION":65.8946,"RA_OF_ASC_NODE":104.3108,"ARG_OF_PERICENTER":166.7711,"MEAN_ANOMALY":194.8817,"EPHEMERIS_TYPE":0,"CLASSIFICATION_TYPE":"U","NORAD_CAT_ID":6844,"ELEMENT_SET_NO":999,"REV_AT_EPOCH":60675,"BSTAR":0.00073965621,"MEAN_MOTION_DOT":2.836e-5,"MEAN_MOTION_DDOT":0}]
